0 DELTA 1 DEB
1 07081U 73086BZ  13282.83184406  .00000051  00000-0  48481-3 0  8409
2 07081 102.2534 027.2359 0165954 106.5676 010.3474 12.69190490847913
0 DELTA 1 DEB
1 07081U 73086BZ  13286.93052744  .00000075  00000-0  59784-3 0  8429
2 07081 102.2541 031.5911 0165860 098.6164 017.5769 12.69190787848435
0 DELTA 1 DEB
1 07081U 73086BZ  13289.52068411  .00000066  00000-0  55454-3 0  8436
2 07081 102.2542 034.3433 0165806 093.5855 332.2326 12.69191351848767
0 DELTA 1 DEB
1 07081U 73086BZ  13291.89670705  .00000073  00000-0  59016-3 0  8441
2 07081 102.2540 036.8680 0165656 088.9572 028.5080 12.69191630849069
0 DELTA 1 DEB
1 07081U 73086BZ  13294.17388718  .00000083  00000-0  63540-3 0  8454
2 07081 102.2538 039.2876 0165595 084.5268 353.1603 12.69192514849358
0 DELTA 1 DEB
1 07081U 73086BZ  13296.21380133  .00000074  00000-0  59467-3 0  8468
2 07081 102.2538 041.4550 0165578 080.5581 313.7278 12.69193610849614
